sat08319
1 08319U 72058EM  20046.87313505  .00000033  00000-0  20010-4 0  9990
2 08319  98.5819 357.6487 0139842 271.4959  87.0220 14.50826383481942
